start=new Date('2023-05-20T00:00:00.000Z').valueOf();
sats=[{"OBJECT_NAME":"STARLINK-2501","OBJECT_ID":"2021-036BG","TIME_SYSTEM":"UTC","PERIAPSIS":"546.537","MEAN_MOTION_DOT":"0.00004675","SITE":"AFETR","CLASSIFICATION_TYPE":"U","ELEMENT_SET_NO":"999","INCLINATION":"53.0540","NORAD_CAT_ID":"48330","BSTAR":"0.00033247000000","DECAY_DATE":null,"OBJECT_TYPE":"PAYLOAD","MEAN_ELEMENT_THEORY":"SGP4","PERIOD":"95.592","RA_OF_ASC_NODE":"22.1336","MEAN_MOTION":"15.06406219","MEAN_MOTION_DDOT":"0.0000000000000","COUNTRY_CODE":"US","CENTER_NAME":"EARTH","ARG_OF_PERICENTER":"108.0318","EPHEMERIS_TYPE":"0","GP_ID":"232159035","TLE_LINE1":"1 48330U 21036BG  23139.88713381  .00004675  00000-0  33247-3 0  9991","SEMIMAJOR_AXIS":"6925.329","LAUNCH_DATE":"2021-04-29","EPOCH":"2023-05-19T21:17:28.361184","TLE_LINE2":"2 48330  53.0540  22.1336 0000949 108.0318 252.0774 15.06406219113575","FILE":"3912278","REV_AT_EPOCH":"11357","APOAPSIS":"547.852","MEAN_ANOMALY":"252.0774","ECCENTRICITY":"0.00009490","RCS_SIZE":"LARGE","REF_FRAME":"TEME"},{"MEAN_ANOMALY":"263.0234","APOAPSIS":"547.985","REV_AT_EPOCH":"11357","ECCENTRICITY":"0.00010930","RCS_SIZE":"LARGE","REF_FRAME":"TEME","TLE_LINE2":"2 48331  53.0547  22.1453 0001093  97.0879 263.0234 15.06395413113579","FILE":"3912278","ARG_OF_PERICENTER":"97.0879","CENTER_NAME":"EARTH","TLE_LINE1":"1 48331U 21036BH  23139.88345018  .00003486  00000-0  25283-3 0  9990","EPHEMERIS_TYPE":"0","GP_ID":"232160286","EPOCH":"2023-05-19T21:12:10.095552","LAUNCH_DATE":"2021-04-29","SEMIMAJOR_AXIS":"6925.363","RA_OF_ASC_NODE":"22.1453","PERIOD":"95.592","MEAN_MOTION":"15.06395413","COUNTRY_CODE":"US","MEAN_MOTION_DDOT":"0.0000000000000","NORAD_CAT_ID":"48331","BSTAR":"0.00025283000000","OBJECT_TYPE":"PAYLOAD","DECAY_DATE":null,"MEAN_ELEMENT_THEORY":"SGP4","ELEMENT_SET_NO":"999","INCLINATION":"53.0547","SITE":"AFETR","CLASSIFICATION_TYPE":"U","OBJECT_NAME":"STARLINK-2514","OBJECT_ID":"2021-036BH","PERIAPSIS":"546.471","TIME_SYSTEM":"UTC","MEAN_MOTION_DOT":"0.00003486"},{"FILE":"3912278","TLE_LINE2":"2 48332  53.0551  22.1588 0000849  82.3648 277.7438 15.06402836113579","REF_FRAME":"TEME","RCS_SIZE":"LARGE","ECCENTRICITY":"0.00008490","REV_AT_EPOCH":"11357","APOAPSIS":"547.793","MEAN_ANOMALY":"277.7438","MEAN_MOTION_DDOT":"0.0000000000000","COUNTRY_CODE":"US","MEAN_MOTION":"15.06402836","PERIOD":"95.592","RA_OF_ASC_NODE":"22.1588","LAUNCH_DATE":"2021-04-29","SEMIMAJOR_AXIS":"6925.340","EPOCH":"2023-05-19T21:10:48.171936","EPHEMERIS_TYPE":"0","GP_ID":"232160009","TLE_LINE1":"1 48332U 21036BJ  23139.88250199  .00006812  00000-0  47573-3 0  9998","CENTER_NAME":"EARTH","ARG_OF_PERICENTER":"82.3648","INCLINATION":"53.0551","ELEMENT_SET_NO":"999","DECAY_DATE":null,"MEAN_ELEMENT_THEORY":"SGP4","OBJECT_TYPE":"PAYLOAD","BSTAR":"0.00047573000000","NORAD_CAT_ID":"48332","MEAN_MOTION_DOT":"0.00006812","TIME_SYSTEM":"UTC","PERIAPSIS":"546.617","OBJECT_NAME":"STARLINK-2511","OBJECT_ID":"2021-036BJ","CLASSIFICATION_TYPE":"U","SITE":"AFETR"},{"OBJECT_ID":"2021-036BK","OBJECT_NAME":"STARLINK-2518","MEAN_MOTION_DOT":"0.00002654","PERIAPSIS":"546.547","TIME_SYSTEM":"UTC","SITE":"AFETR","CLASSIFICATION_TYPE":"U","ELEMENT_SET_NO":"999","INCLINATION":"53.0554","NORAD_CAT_ID":"48333","MEAN_ELEMENT_THEORY":"SGP4","DECAY_DATE":null,"OBJECT_TYPE":"PAYLOAD","BSTAR":"0.00019703000000","RA_OF_ASC_NODE":"21.8867","PERIOD":"95.592","COUNTRY_CODE":"US","MEAN_MOTION_DDOT":"0.0000000000000","MEAN_MOTION":"15.06394368","TLE_LINE1":"1 48333U 21036BK  23139.94243210  .00002654  00000-0  19703-3 0  9996","EPHEMERIS_TYPE":"0","GP_ID":"232158785","CENTER_NAME":"EARTH","ARG_OF_PERICENTER":"84.8693","LAUNCH_DATE":"2021-04-29","EPOCH":"2023-05-19T22:37:06.133440","SEMIMAJOR_AXIS":"6925.366","TLE_LINE2":"2 48333  53.0554  21.8867 0000987  84.8693 275.2408 15.06394368113580","FILE":"3912278","ECCENTRICITY":"0.00009870","MEAN_ANOMALY":"275.2408","APOAPSIS":"547.914","REV_AT_EPOCH":"11358","REF_FRAME":"TEME","RCS_SIZE":"LARGE"},{"NORAD_CAT_ID":"48334","BSTAR":"0.00056150000000","DECAY_DATE":null,"OBJECT_TYPE":"PAYLOAD","MEAN_ELEMENT_THEORY":"SGP4","ELEMENT_SET_NO":"999","INCLINATION":"53.0542","SITE":"AFETR","CLASSIFICATION_TYPE":"U","OBJECT_ID":"2021-036BL","OBJECT_NAME":"STARLINK-2470","TIME_SYSTEM":"UTC","PERIAPSIS":"546.253","MEAN_MOTION_DOT":"0.00008093","REV_AT_EPOCH":"11358","APOAPSIS":"548.149","MEAN_ANOMALY":"268.8198","ECCENTRICITY":"0.00013690","RCS_SIZE":"LARGE","REF_FRAME":"TEME","TLE_LINE2":"2 48334  53.0542  21.9064 0001369  91.2948 268.8198 15.06403963113584","FILE":"3912278","ARG_OF_PERICENTER":"91.2948","CENTER_NAME":"EARTH","GP_ID":"232159535","EPHEMERIS_TYPE":"0","TLE_LINE1":"1 48334U 21036BL  23139.93874139  .00008093  00000-0  56150-3 0  9996","EPOCH":"2023-05-19T22:31:47.256096","LAUNCH_DATE":"2021-04-29","SEMIMAJOR_AXIS":"6925.336","PERIOD":"95.592","RA_OF_ASC_NODE":"21.9064","MEAN_MOTION":"15.06403963","MEAN_MOTION_DDOT":"0.0000000000000","COUNTRY_CODE":"US"},{"TLE_LINE2":"2 48335  53.0550  21.9187 0001287  92.2770 267.8366 15.06400213113584","FILE":"3912278","ECCENTRICITY":"0.00012870","REV_AT_EPOCH":"11358","APOAPSIS":"548.104","MEAN_ANOMALY":"267.8366","REF_FRAME":"TEME","RCS_SIZE":"LARGE","PERIOD":"95.592","RA_OF_ASC_NODE":"21.9187","MEAN_MOTION_DDOT":"0.0000000000000","COUNTRY_CODE":"US","MEAN_MOTION":"15.06400213","GP_ID":"232159787","EPHEMERIS_TYPE":"0","TLE_LINE1":"1 48335U 21036BM  23139.93505632  .00005835  00000-0  41028-3 0  9995","ARG_OF_PERICENTER":"92.2770","CENTER_NAME":"EARTH","SEMIMAJOR_AXIS":"6925.348","LAUNCH_DATE":"2021-04-29","EPOCH":"2023-05-19T22:26:28.866048","ELEMENT_SET_NO":"999","INCLINATION":"53.0550","NORAD_CAT_ID":"48335","DECAY_DATE":null,"MEAN_ELEMENT_THEORY":"SGP4","OBJECT_TYPE":"PAYLOAD","BSTAR":"0.00041028000000","OBJECT_ID":"2021-036BM","OBJECT_NAME":"STARLINK-2441","MEAN_MOTION_DOT":"0.00005835","TIME_SYSTEM":"UTC","PERIAPSIS":"546.322","SITE":"AFETR","CLASSIFICATION_TYPE":"U"},{"MEAN_MOTION":"15.06397397","COUNTRY_CODE":"US","MEAN_MOTION_DDOT":"0.0000000000000","RA_OF_ASC_NODE":"283.0858","PERIOD":"95.592","SEMIMAJOR_AXIS":"6925.357","LAUNCH_DATE":"2021-05-04","EPOCH":"2023-05-19T16:12:16.963776","ARG_OF_PERICENTER":"75.4894","CENTER_NAME":"EARTH","TLE_LINE1":"1 48353U 21038A   23139.67519634  .00005495  00000-0  38751-3 0  9996","GP_ID":"232160011","EPHEMERIS_TYPE":"0","FILE":"3912278","TLE_LINE2":"2 48353  53.0540 283.0858 0001401  75.4894 284.6250 15.06397397112538","RCS_SIZE":"LARGE","REF_FRAME":"TEME","MEAN_ANOMALY":"284.6250","APOAPSIS":"548.192","REV_AT_EPOCH":"11253","ECCENTRICITY":"0.00014010","PERIAPSIS":"546.251","TIME_SYSTEM":"UTC","MEAN_MOTION_DOT":"0.00005495","OBJECT_NAME":"STARLINK-2613","OBJECT_ID":"2021-038A","CLASSIFICATION_TYPE":"U","SITE":"AFETR","INCLINATION":"53.0540","ELEMENT_SET_NO":"999","BSTAR":"0.00038751000000","DECAY_DATE":null,"MEAN_ELEMENT_THEORY":"SGP4","OBJECT_TYPE":"PAYLOAD","NORAD_CAT_ID":"48353"},{"APOAPSIS":"547.519","MEAN_ANOMALY":"7.1026","REV_AT_EPOCH":"11253","ECCENTRICITY":"0.00004740","RCS_SIZE":"LARGE","REF_FRAME":"TEME","TLE_LINE2":"2 48354  53.0565 283.1045 0000474 352.9956   7.1026 15.06407324112537","FILE":"3912278","CENTER_NAME":"EARTH","ARG_OF_PERICENTER":"352.9956","TLE_LINE1":"1 48354U 21038B   23139.67151227  .00010163  00000-0  70002-3 0  9990","EPHEMERIS_TYPE":"0","GP_ID":"232158787","LAUNCH_DATE":"2021-05-04","SEMIMAJOR_AXIS":"6925.326","EPOCH":"2023-05-19T16:06:58.660128","RA_OF_ASC_NODE":"283.1045","PERIOD":"95.592","MEAN_MOTION":"15.06407324","COUNTRY_CODE":"US","MEAN_MOTION_DDOT":"0.0000000000000","NORAD_CAT_ID":"48354","BSTAR":"0.00070002000000","MEAN_ELEMENT_THEORY":"SGP4","DECAY_DATE":null,"OBJECT_TYPE":"PAYLOAD","ELEMENT_SET_NO":"999","INCLINATION":"53.0565","SITE":"AFETR","CLASSIFICATION_TYPE":"U","OBJECT_NAME":"STARLINK-2674","OBJECT_ID":"2021-038B","PERIAPSIS":"546.863","TIME_SYSTEM":"UTC","MEAN_MOTION_DOT":"0.00010163"},{"LAUNCH_DATE":"2021-05-04","EPOCH":"2023-05-19T16:01:39.800928","SEMIMAJOR_AXIS":"6925.351","ARG_OF_PERICENTER":"85.1251","CENTER_NAME":"EARTH","GP_ID":"232159537","EPHEMERIS_TYPE":"0","TLE_LINE1":"1 48355U 21038C   23139.66782177  .00007052  00000-0  49183-3 0  9993","MEAN_MOTION":"15.06399083","MEAN_MOTION_DDOT":"0.0000000000000","COUNTRY_CODE":"US","PERIOD":"95.592","RA_OF_ASC_NODE":"283.1199","RCS_SIZE":"LARGE","REF_FRAME":"TEME","REV_AT_EPOCH":"11253","MEAN_ANOMALY":"274.9889","APOAPSIS":"548.132","ECCENTRICITY":"0.00013220","FILE":"3912278","TLE_LINE2":"2 48355  53.0539 283.1199 0001322  85.1251 274.9889 15.06399083112538","CLASSIFICATION_TYPE":"U","SITE":"AFETR","TIME_SYSTEM":"UTC","PERIAPSIS":"546.301","MEAN_MOTION_DOT":"0.00007052","OBJECT_ID":"2021-038C","OBJECT_NAME":"STARLINK-2635","BSTAR":"0.00049183000000","DECAY_DATE":null,"OBJECT_TYPE":"PAYLOAD","MEAN_ELEMENT_THEORY":"SGP4","NORAD_CAT_ID":"48355","INCLINATION":"53.0539","ELEMENT_SET_NO":"999"},{"SEMIMAJOR_AXIS":"6925.350","LAUNCH_DATE":"2021-05-04","EPOCH":"2023-05-18T17:38:49.278912","CENTER_NAME":"EARTH","ARG_OF_PERICENTER":"89.6710","TLE_LINE1":"1 48356U 21038D   23138.73529258  .00022118  00000-0  14991-2 0  9998","GP_ID":"232127392","EPHEMERIS_TYPE":"0","MEAN_MOTION":"15.06399686","COUNTRY_CODE":"US","MEAN_MOTION_DDOT":"0.0000000000000","RA_OF_ASC_NODE":"287.3075","PERIOD":"95.592","RCS_SIZE":"LARGE","REF_FRAME":"TEME","APOAPSIS":"547.874","MEAN_ANOMALY":"270.4389","REV_AT_EPOCH":"11298","ECCENTRICITY":"0.00009520","FILE":"3911756","TLE_LINE2":"2 48356  53.0540 287.3075 0000952  89.6710 270.4389 15.06399686112981","CLASSIFICATION_TYPE":"U","SITE":"AFETR","PERIAPSIS":"546.555","TIME_SYSTEM":"UTC","MEAN_MOTION_DOT":"0.00022118","OBJECT_ID":"2021-038D","OBJECT_NAME":"STARLINK-2637","BSTAR":"0.00149910000000","DECAY_DATE":null,"MEAN_ELEMENT_THEORY":"SGP4","OBJECT_TYPE":"PAYLOAD","NORAD_CAT_ID":"48356","INCLINATION":"53.0540","ELEMENT_SET_NO":"999"}];
